<?xml version="1.0" encoding="UTF-8"?>
<kml xmlns="http://www.opengis.net/kml/2.2" xmlns:gx="http://www.google.com/kml/ext/2.2" xmlns:kml="http://www.opengis.net/kml/2.2" xmlns:atom="http://www.w3.org/2005/Atom">
<Document>
	<name>Project Site.kml</name>
	<open>1</open>
	<Style id="LineStyle0022">
		<LabelStyle>
			<color>00000000</color>
			<scale>0</scale>
		</LabelStyle>
		<LineStyle>
			<color>ff0000aa</color>
			<width>1.3</width>
		</LineStyle>
	</Style>
	<StyleMap id="LineStyle008">
		<Pair>
			<key>normal</key>
			<styleUrl>#LineStyle0025</styleUrl>
		</Pair>
		<Pair>
			<key>highlight</key>
			<styleUrl>#LineStyle0024</styleUrl>
		</Pair>
	</StyleMap>
	<Style id="LineStyle0025">
		<LabelStyle>
			<color>00000000</color>
			<scale>0</scale>
		</LabelStyle>
		<LineStyle>
			<color>ff0000aa</color>
			<width>1.3</width>
		</LineStyle>
	</Style>
	<Style id="LineStyle0026">
		<LabelStyle>
			<color>00000000</color>
			<scale>0</scale>
		</LabelStyle>
		<LineStyle>
			<color>ff0000aa</color>
			<width>1.3</width>
		</LineStyle>
	</Style>
	<Style id="LineStyle0016">
		<LabelStyle>
			<color>00000000</color>
			<scale>0</scale>
		</LabelStyle>
		<LineStyle>
			<color>ff0000aa</color>
			<width>1.3</width>
		</LineStyle>
	</Style>
	<Style id="LineStyle0033">
		<LabelStyle>
			<color>00000000</color>
			<scale>0</scale>
		</LabelStyle>
		<LineStyle>
			<color>ff0000aa</color>
			<width>1.3</width>
		</LineStyle>
	</Style>
	<Style id="LineStyle0032">
		<LabelStyle>
			<color>00000000</color>
			<scale>0</scale>
		</LabelStyle>
		<LineStyle>
			<color>ff0000aa</color>
			<width>1.3</width>
		</LineStyle>
	</Style>
	<StyleMap id="LineStyle006">
		<Pair>
			<key>normal</key>
			<styleUrl>#LineStyle0027</styleUrl>
		</Pair>
		<Pair>
			<key>highlight</key>
			<styleUrl>#LineStyle003</styleUrl>
		</Pair>
	</StyleMap>
	<Style id="LineStyle0024">
		<LabelStyle>
			<color>00000000</color>
			<scale>0</scale>
		</LabelStyle>
		<LineStyle>
			<color>ff0000aa</color>
			<width>1.3</width>
		</LineStyle>
	</Style>
	<Style id="LineStyle001">
		<LabelStyle>
			<color>00000000</color>
			<scale>0</scale>
		</LabelStyle>
		<LineStyle>
			<color>ff0000aa</color>
			<width>1.3</width>
		</LineStyle>
	</Style>
	<Style id="LineStyle0017">
		<LabelStyle>
			<color>00000000</color>
			<scale>0</scale>
		</LabelStyle>
		<LineStyle>
			<color>ff0000aa</color>
			<width>1.3</width>
		</LineStyle>
	</Style>
	<StyleMap id="LineStyle0023">
		<Pair>
			<key>normal</key>
			<styleUrl>#LineStyle001</styleUrl>
		</Pair>
		<Pair>
			<key>highlight</key>
			<styleUrl>#LineStyle0018</styleUrl>
		</Pair>
	</StyleMap>
	<Style id="LineStyle004">
		<LabelStyle>
			<color>00000000</color>
			<scale>0</scale>
		</LabelStyle>
		<LineStyle>
			<color>ff0000aa</color>
			<width>1.3</width>
		</LineStyle>
	</Style>
	<Style id="LineStyle0021">
		<LabelStyle>
			<color>00000000</color>
			<scale>0</scale>
		</LabelStyle>
		<LineStyle>
			<color>ff0000aa</color>
			<width>1.3</width>
		</LineStyle>
	</Style>
	<Style id="LineStyle0028">
		<LabelStyle>
			<color>00000000</color>
			<scale>0</scale>
		</LabelStyle>
		<LineStyle>
			<color>ff0000aa</color>
			<width>1.3</width>
		</LineStyle>
	</Style>
	<Style id="LineStyle0029">
		<LabelStyle>
			<color>00000000</color>
			<scale>0</scale>
		</LabelStyle>
		<LineStyle>
			<color>ff0000aa</color>
			<width>1.3</width>
		</LineStyle>
	</Style>
	<StyleMap id="LineStyle00">
		<Pair>
			<key>normal</key>
			<styleUrl>#LineStyle0022</styleUrl>
		</Pair>
		<Pair>
			<key>highlight</key>
			<styleUrl>#LineStyle0013</styleUrl>
		</Pair>
	</StyleMap>
	<Style id="LineStyle005">
		<LabelStyle>
			<color>00000000</color>
			<scale>0</scale>
		</LabelStyle>
		<LineStyle>
			<color>ff0000aa</color>
			<width>1.3</width>
		</LineStyle>
	</Style>
	<Style id="sn_ylw-pushpin">
		<IconStyle>
			<scale>1.1</scale>
			<Icon>
				<href>http://maps.google.com/mapfiles/kml/pushpin/ylw-pushpin.png</href>
			</Icon>
			<hotSpot x="20" y="2" xunits="pixels" yunits="pixels"/>
		</IconStyle>
		<LineStyle>
			<color>ffff0000</color>
			<width>1.3</width>
		</LineStyle>
	</Style>
	<Style id="LineStyle0014">
		<LabelStyle>
			<color>00000000</color>
			<scale>0</scale>
		</LabelStyle>
		<LineStyle>
			<color>ff0000aa</color>
			<width>1.3</width>
		</LineStyle>
	</Style>
	<Style id="LineStyle0030">
		<LabelStyle>
			<color>00000000</color>
			<scale>0</scale>
		</LabelStyle>
		<LineStyle>
			<color>ff0000aa</color>
			<width>1.3</width>
		</LineStyle>
	</Style>
	<StyleMap id="msn_ylw-pushpin">
		<Pair>
			<key>normal</key>
			<styleUrl>#sn_ylw-pushpin</styleUrl>
		</Pair>
		<Pair>
			<key>highlight</key>
			<styleUrl>#sh_ylw-pushpin</styleUrl>
		</Pair>
	</StyleMap>
	<Style id="LineStyle0027">
		<LabelStyle>
			<color>00000000</color>
			<scale>0</scale>
		</LabelStyle>
		<LineStyle>
			<color>ff0000aa</color>
			<width>1.3</width>
		</LineStyle>
	</Style>
	<StyleMap id="LineStyle000">
		<Pair>
			<key>normal</key>
			<styleUrl>#LineStyle0014</styleUrl>
		</Pair>
		<Pair>
			<key>highlight</key>
			<styleUrl>#LineStyle0032</styleUrl>
		</Pair>
	</StyleMap>
	<Style id="LineStyle0018">
		<LabelStyle>
			<color>00000000</color>
			<scale>0</scale>
		</LabelStyle>
		<LineStyle>
			<color>ff0000aa</color>
			<width>1.3</width>
		</LineStyle>
	</Style>
	<StyleMap id="LineStyle0031">
		<Pair>
			<key>normal</key>
			<styleUrl>#LineStyle0029</styleUrl>
		</Pair>
		<Pair>
			<key>highlight</key>
			<styleUrl>#LineStyle009</styleUrl>
		</Pair>
	</StyleMap>
	<Style id="LineStyle0012">
		<LabelStyle>
			<color>00000000</color>
			<scale>0</scale>
		</LabelStyle>
		<LineStyle>
			<color>ff0000aa</color>
			<width>1.3</width>
		</LineStyle>
	</Style>
	<StyleMap id="LineStyle002">
		<Pair>
			<key>normal</key>
			<styleUrl>#LineStyle0026</styleUrl>
		</Pair>
		<Pair>
			<key>highlight</key>
			<styleUrl>#LineStyle0019</styleUrl>
		</Pair>
	</StyleMap>
	<StyleMap id="LineStyle0010">
		<Pair>
			<key>normal</key>
			<styleUrl>#LineStyle0021</styleUrl>
		</Pair>
		<Pair>
			<key>highlight</key>
			<styleUrl>#LineStyle005</styleUrl>
		</Pair>
	</StyleMap>
	<StyleMap id="LineStyle007">
		<Pair>
			<key>normal</key>
			<styleUrl>#LineStyle0016</styleUrl>
		</Pair>
		<Pair>
			<key>highlight</key>
			<styleUrl>#LineStyle0012</styleUrl>
		</Pair>
	</StyleMap>
	<StyleMap id="LineStyle0034">
		<Pair>
			<key>normal</key>
			<styleUrl>#LineStyle0028</styleUrl>
		</Pair>
		<Pair>
			<key>highlight</key>
			<styleUrl>#LineStyle0017</styleUrl>
		</Pair>
	</StyleMap>
	<Style id="LineStyle0015">
		<LabelStyle>
			<color>00000000</color>
			<scale>0</scale>
		</LabelStyle>
		<LineStyle>
			<color>ff0000aa</color>
			<width>1.3</width>
		</LineStyle>
	</Style>
	<Style id="sh_ylw-pushpin">
		<IconStyle>
			<scale>1.3</scale>
			<Icon>
				<href>http://maps.google.com/mapfiles/kml/pushpin/ylw-pushpin.png</href>
			</Icon>
			<hotSpot x="20" y="2" xunits="pixels" yunits="pixels"/>
		</IconStyle>
		<LineStyle>
			<color>ffff0000</color>
			<width>1.3</width>
		</LineStyle>
	</Style>
	<StyleMap id="LineStyle0020">
		<Pair>
			<key>normal</key>
			<styleUrl>#LineStyle0015</styleUrl>
		</Pair>
		<Pair>
			<key>highlight</key>
			<styleUrl>#LineStyle004</styleUrl>
		</Pair>
	</StyleMap>
	<Style id="LineStyle0019">
		<LabelStyle>
			<color>00000000</color>
			<scale>0</scale>
		</LabelStyle>
		<LineStyle>
			<color>ff0000aa</color>
			<width>1.3</width>
		</LineStyle>
	</Style>
	<Style id="LineStyle003">
		<LabelStyle>
			<color>00000000</color>
			<scale>0</scale>
		</LabelStyle>
		<LineStyle>
			<color>ff0000aa</color>
			<width>1.3</width>
		</LineStyle>
	</Style>
	<StyleMap id="LineStyle0011">
		<Pair>
			<key>normal</key>
			<styleUrl>#LineStyle0033</styleUrl>
		</Pair>
		<Pair>
			<key>highlight</key>
			<styleUrl>#LineStyle0030</styleUrl>
		</Pair>
	</StyleMap>
	<Style id="LineStyle0013">
		<LabelStyle>
			<color>00000000</color>
			<scale>0</scale>
		</LabelStyle>
		<LineStyle>
			<color>ff0000aa</color>
			<width>1.3</width>
		</LineStyle>
	</Style>
	<Style id="LineStyle009">
		<LabelStyle>
			<color>00000000</color>
			<scale>0</scale>
		</LabelStyle>
		<LineStyle>
			<color>ff0000aa</color>
			<width>1.3</width>
		</LineStyle>
	</Style>
	<Folder id="FeatureLayer0">
		<name>MINE SITE BOUNDARY</name>
		<open>1</open>
		<Snippet maxLines="0"></Snippet>
		<Placemark>
			<name>76.409 Ha</name>
			<Snippet maxLines="0"></Snippet>
			<styleUrl>#LineStyle000</styleUrl>
			<MultiGeometry>
				<LineString>
					<tessellate>1</tessellate>
					<coordinates>
						80.219635,21.828344,0 80.219554,21.82841,0 80.21947299999999,21.828466,0 80.219397,21.828493,0 80.219262,21.828511,0 80.219176,21.82851,0 80.219273,21.828713,0 80.219303,21.828818,0 80.21932099999999,21.828923,0 80.219314,21.829018,0 80.219264,21.8291,0 80.219185,21.82915,0 80.219129,21.82916,0 80.219109,21.82916,0 80.219077,21.829156,0 80.219053,21.829153,0 80.219038,21.829148,0 80.219013,21.829143,0 80.21890999999999,21.829081,0 80.218828,21.829,0 80.218745,21.828941,0 80.218724,21.828938,0 80.21871400000001,21.828946,0 80.218692,21.828976,0 80.218678,21.828997,0 80.21866300000001,21.82901,0 80.21858899999999,21.82904,0 80.21848799999999,21.829071,0 80.218463,21.829074,0 80.218439,21.829074,0 80.21837100000001,21.829069,0 80.218333,21.829109,0 80.218315,21.829182,0 80.218205,21.829328,0 80.21828100000001,21.829521,0 80.218328,21.829627,0 80.218391,21.82992,0 80.218406,21.830002,0 80.21844299999999,21.830168,0 80.21856099999999,21.830285,0 80.218656,21.830394,0 80.218779,21.830552,0 80.218895,21.830724,0 80.21905,21.830825,0 80.219174,21.830938,0 80.21922499999999,21.830981,0 80.219328,21.831131,0 80.21942300000001,21.831317,0 80.21938,21.831412,0 80.219326,21.831467,0 80.219247,21.831525,0 80.219146,21.831573,0 80.21906,21.831619,0 80.21899500000001,21.831636,0 80.21884300000001,21.831615,0 80.21882600000001,21.831612,0 80.218751,21.831577,0 80.21867,21.831516,0 80.21862400000001,21.831417,0 80.218626,21.831501,0 80.21863500000001,21.831654,0 80.218631,21.831881,0 80.218621,21.832101,0 80.21861300000001,21.832167,0 80.218608,21.832307,0 80.218631,21.832571,0 80.218636,21.83266,0 80.218633,21.832749,0 80.21862299999999,21.8329,0 80.21865800000001,21.833047,0 80.21868000000001,21.833088,0 80.21881999999999,21.833227,0 80.21895600000001,21.833348,0 80.219178,21.833493,0 80.219297,21.833548,0 80.21952899999999,21.833642,0 80.219748,21.833731,0 80.219838,21.833759,0 80.21995699999999,21.833572,0 80.219972,21.833494,0 80.220007,21.833388,0 80.22003599999999,21.833334,0 80.220069,21.833235,0 80.22013800000001,21.832956,0 80.220195,21.832747,0 80.220241,21.832632,0 80.22027799999999,21.832596,0 80.220325,21.832569,0 80.22038000000001,21.832551,0 80.220421,21.832519,0 80.22048,21.832453,0 80.220613,21.832334,0 80.220771,21.832204,0 80.220872,21.832135,0 80.221045,21.832091,0 80.22126900000001,21.832029,0 80.221625,21.831937,0 80.22179199999999,21.831893,0 80.221891,21.831858,0 80.221988,21.831789,0 80.222071,21.831717,0 80.222162,21.831604,0 80.222222,21.831518,0 80.222296,21.831339,0 80.222335,21.831023,0 80.222396,21.830534,0 80.22233300000001,21.830218,0 80.222184,21.829732,0 80.222123,21.829508,0 80.22206799999999,21.829348,0 80.222015,21.829229,0 80.221977,21.829156,0 80.22192699999999,21.829131,0 80.221867,21.829141,0 80.22174800000001,21.829182,0 80.2216,21.829264,0 80.221519,21.829303,0 80.221317,21.829375,0 80.22117400000001,21.82941,0 80.22098699999999,21.829409,0 80.22084099999999,21.829348,0 80.22075599999999,21.829313,0 80.22045300000001,21.829102,0 80.22037400000001,21.82902,0 80.22033500000001,21.828957,0 80.220275,21.828798,0 80.220147,21.828563,0 80.22009799999999,21.828507,0 80.219999,21.828438,0 80.219871,21.82831,0 80.219782,21.828177,0 80.219728,21.828097,0 80.219691,21.828045,0 80.219651,21.827964,0 80.219647,21.827865,0 80.21962499999999,21.827713,0 80.219602,21.827595,0 80.21956,21.827481,0 80.21950699999999,21.827408,0 80.219489,21.827486,0 80.219489,21.827627,0 80.21950200000001,21.827711,0 80.21954599999999,21.827934,0 80.219588,21.828071,0 80.219629,21.828216,0 80.219635,21.828344,0 
					</coordinates>
				</LineString>
			</MultiGeometry>
		</Placemark>
		<Placemark>
			<name>76.409 Ha</name>
			<Snippet maxLines="0"></Snippet>
			<styleUrl>#LineStyle0020</styleUrl>
			<MultiGeometry>
				<LineString>
					<tessellate>1</tessellate>
					<coordinates>
						80.220325,21.833555,0 80.220657,21.8338,0 80.22078999999999,21.833901,0 80.22088700000001,21.833979,0 80.221024,21.834103,0 80.221059,21.834155,0 80.221082,21.834222,0 80.22109399999999,21.834347,0 80.221115,21.834378,0 80.22134300000001,21.834539,0 80.2214,21.834586,0 80.221572,21.834744,0 80.221722,21.834857,0 80.221745,21.834873,0 80.221851,21.834927,0 80.222009,21.835067,0 80.222033,21.835082,0 80.22207,21.835107,0 80.222134,21.835137,0 80.22226000000001,21.83526,0 80.222359,21.8354,0 80.22268200000001,21.835605,0 80.222741,21.835649,0 80.222832,21.835716,0 80.222872,21.835775,0 80.22292299999999,21.835895,0 80.22302500000001,21.836082,0 80.22317099999999,21.836195,0 80.22327799999999,21.836295,0 80.22320499999999,21.836357,0 80.22316100000001,21.836507,0 80.223136,21.83665,0 80.223195,21.836715,0 80.223308,21.836791,0 80.223383,21.83683,0 80.22368400000001,21.836971,0 80.224107,21.837196,0 80.224349,21.837327,0 80.22450000000001,21.837405,0 80.224684,21.837546,0 80.224892,21.837709,0 80.225129,21.837895,0 80.22497199999999,21.837309,0 80.224946,21.837208,0 80.22435900000001,21.836367,0 80.22408299999999,21.835971,0 80.224402,21.835681,0 
					</coordinates>
				</LineString>
			</MultiGeometry>
		</Placemark>
		<Placemark>
			<name>76.409 Ha</name>
			<Snippet maxLines="0"></Snippet>
			<styleUrl>#LineStyle007</styleUrl>
			<MultiGeometry>
				<LineString>
					<tessellate>1</tessellate>
					<coordinates>
						80.224587,21.835386,0 80.224778,21.835333,0 80.224677,21.835007,0 80.224662,21.834945,0 80.22462299999999,21.834678,0 80.22456800000001,21.834474,0 80.224434,21.834254,0 80.22434800000001,21.834125,0 80.224261,21.833898,0 80.224079,21.833348,0 80.223953,21.833423,0 80.223998,21.833635,0 80.224075,21.833877,0 80.224189,21.834212,0 80.224345,21.834631,0 80.22439799999999,21.834795,0 80.224587,21.835386,0 
					</coordinates>
				</LineString>
			</MultiGeometry>
		</Placemark>
		<Placemark>
			<name>76.409 Ha</name>
			<Snippet maxLines="0"></Snippet>
			<styleUrl>#LineStyle002</styleUrl>
			<MultiGeometry>
				<LineString>
					<tessellate>1</tessellate>
					<coordinates>
						80.225784,21.834624,0 80.226471,21.83472,0 80.226974,21.834812,0 80.226895,21.835052,0 80.2268,21.835486,0 80.226725,21.835985,0 80.22669500000001,21.836186,0 80.226652,21.836234,0 80.22661700000001,21.836251,0 80.22645,21.836273,0 80.226294,21.836574,0 80.22628400000001,21.836627,0 80.22635099999999,21.836843,0 80.226354,21.83692,0 80.226178,21.836927,0 80.226136,21.837038,0 80.22619,21.837325,0 80.22622200000001,21.837525,0 80.226321,21.837836,0 80.22573800000001,21.8376,0 80.225385,21.837086,0 80.224784,21.836197,0 80.224679,21.836045,0 80.224402,21.835681,0 
					</coordinates>
				</LineString>
			</MultiGeometry>
		</Placemark>
		<Placemark>
			<name>76.409 Ha</name>
			<Snippet maxLines="0"></Snippet>
			<styleUrl>#LineStyle006</styleUrl>
			<MultiGeometry>
				<LineString>
					<tessellate>1</tessellate>
					<coordinates>
						80.226422,21.837864,0 80.226771,21.837861,0 80.22683092680843,21.83775265679665,0 80.2268418105012,21.83765087335746,0 80.22697869531019,21.83757112545941,0 80.22702814771417,21.83749154467109,0 80.2272125166964,21.8373905923481,0 80.22712856417385,21.83757833046915,0 80.22712535686959,21.83770899695466,0 80.22713113766004,21.83779639574619,0 80.2272009458781,21.83786211018299,0 80.22719043334554,21.83797191065797,0 80.22732290927344,21.83809686768606,0 80.22754218121483,21.83831123043288,0 80.22774877210756,21.83841527977755,0 80.22802103335604,21.83847483136649,0 80.22821463293128,21.8383486927174,0 80.22837463139786,21.83841570377949,0 80.22851893799457,21.8384680888368,0 80.22863125475578,21.83860266550002,0 80.22867945715692,21.83874513069297,0 80.22866311730802,21.83889572610326,0 80.22862241226343,21.83903174567536,0 80.22858142347315,21.83919918708835,0 80.22851535898863,21.83947513598221,0 80.22832047398649,21.8393786958105,0 80.22806909618527,21.83921360745523,0 80.22787966310131,21.83906501120039,0 80.22750073237961,21.83884034472635,0 80.22708770465845,21.83854564447574,0 80.22685923340498,21.8384083191081,0 80.226422,21.837864,0 
					</coordinates>
				</LineString>
			</MultiGeometry>
		</Placemark>
		<Placemark>
			<name>76.409 Ha</name>
			<Snippet maxLines="0"></Snippet>
			<styleUrl>#LineStyle0031</styleUrl>
			<MultiGeometry>
				<LineString>
					<tessellate>1</tessellate>
					<coordinates>
						80.223045,21.831726,0 80.22313800000001,21.831671,0 80.22356000000001,21.831567,0 80.223973,21.83153,0 80.224065,21.83154,0 80.224158,21.831585,0 80.224357,21.831761,0 80.22446600000001,21.831952,0 80.22460700000001,21.832398,0 80.224732,21.832449,0 80.225072,21.832491,0 80.225264,21.83247,0 80.225522,21.832482,0 80.22566500000001,21.833382,0 80.22572099999999,21.83365,0 80.225734,21.834434,0 80.225784,21.834624,0 
					</coordinates>
				</LineString>
			</MultiGeometry>
		</Placemark>
		<Placemark>
			<name>76.409 Ha</name>
			<Snippet maxLines="0"></Snippet>
			<styleUrl>#LineStyle00</styleUrl>
			<MultiGeometry>
				<LineString>
					<tessellate>1</tessellate>
					<coordinates>
						80.222499,21.837576,0 80.223437,21.838693,0 80.22435,21.839781,0 80.22492800000001,21.840921,0 80.22550800000001,21.842067,0 80.22579500000001,21.84285,0 80.226096,21.843608,0 80.226153,21.843722,0 80.22659299999999,21.844561,0 80.226739,21.844841,0 80.22679700000001,21.844925,0 80.22704400000001,21.845238,0 80.22762,21.846115,0 80.22818700000001,21.847139,0 80.227829,21.846059,0 80.227428,21.84485,0 80.227261,21.84433,0 80.226905,21.843262,0 80.22651999999999,21.842086,0 80.226286,21.841372,0 80.226169,21.840999,0 80.226055,21.840631,0 80.225658,21.839474,0 80.225408,21.838673,0 80.225278,21.838301,0 80.22451,21.837832,0 80.224142,21.837602,0 80.223996,21.837515,0 80.223726,21.837377,0 80.22337400000001,21.837189,0 80.222914,21.836908,0 
					</coordinates>
				</LineString>
			</MultiGeometry>
		</Placemark>
		<Placemark>
			<name>76.409 Ha</name>
			<Snippet maxLines="0"></Snippet>
			<styleUrl>#LineStyle0034</styleUrl>
			<MultiGeometry>
				<LineString>
					<tessellate>1</tessellate>
					<coordinates>
						80.22914883672594,21.83994758529873,0 80.22971274072688,21.8403310280784,0 80.23004265518367,21.84053956671093,0 80.2303751707594,21.84076575657938,0 80.23053809547112,21.84085565626809,0 80.23087300003706,21.84083933504826,0 80.23105499068781,21.84087204898755,0 80.23137425981153,21.84095432672293,0 80.23161260617238,21.84100404220821,0 80.23189820691189,21.84106948242543,0 80.23204584247532,21.84110318553353,0 80.23217013354064,21.84113043959696,0 80.232327076658,21.84117166132882,0 80.23229501816037,21.84102471173981,0 80.23240389631819,21.84104598234339,0 80.23265981221226,21.84111812352024,0 80.23263048780156,21.84092665291272,0 80.2322193855816,21.84089764904998,0 80.23188316750752,21.84058401226641,0 80.23170025453541,21.84021444719988,0 80.23166322013152,21.84007244030035,0 80.23176850872575,21.84006664915398,0 80.23171642018389,21.83986572929949,0 80.23166859382621,21.8395939692515,0 80.23155214632449,21.83930700133162,0 80.23130976102831,21.83860938831016,0 80.23105101256861,21.83832282371791,0 80.23069632511573,21.83826105591227,0 80.2304257483254,21.8381998264481,0 80.22996686230022,21.8383249380926,0 80.22963824794155,21.83836185678588,0 80.22928404768079,21.83840635468919,0 80.22884642524409,21.83845835266086,0 80.22882900000001,21.839059,0 80.228863,21.839337,0 80.22873860582148,21.83966100076328,0 80.2289676468931,21.83983483292887,0 80.22914883672594,21.83994758529873,0 
					</coordinates>
				</LineString>
			</MultiGeometry>
		</Placemark>
		<Placemark>
			<name>76.409 Ha</name>
			<Snippet maxLines="0"></Snippet>
			<styleUrl>#LineStyle0010</styleUrl>
			<MultiGeometry>
				<LineString>
					<tessellate>1</tessellate>
					<coordinates>
						80.23235991901423,21.84117876075584,0 80.23279101605607,21.84125324380803,0 80.23337702413643,21.84134144583751,0 80.23399377997254,21.8414783206918,0 80.23446791959429,21.84153840416451,0 80.23530570968282,21.84161643703379,0 80.23578048428909,21.84174421143014,0 80.23763437895983,21.84201471065056,0 80.23781840773997,21.84219585927279,0 80.23760452688492,21.84224766606332,0 80.23735668513147,21.84224765959487,0 80.237351,21.843845,0 80.237274,21.843779,0 80.237172,21.843722,0 80.237071,21.843732,0 80.236887,21.84377,0 80.236586,21.843851,0 80.236374,21.843951,0 80.235936,21.84422,0 80.235792,21.844361,0 80.23572299999999,21.844456,0 80.235604,21.844526,0 80.23549199999999,21.844564,0 80.235265,21.844572,0 80.235004,21.84467,0 80.23470399999999,21.844698,0 80.234554,21.844748,0 80.234441,21.844826,0 80.234363,21.844955,0 80.234284,21.845165,0 80.234279,21.845324,0 80.23432200000001,21.845589,0 80.23433799999999,21.845783,0 80.234279,21.846024,0 80.234163,21.846249,0 80.234157,21.846453,0 80.23412399999999,21.846601,0 80.234028,21.846739,0 80.23393400000001,21.846847,0 80.233808,21.847077,0 80.233778,21.847176,0 
					</coordinates>
				</LineString>
			</MultiGeometry>
		</Placemark>
		<Placemark>
			<name>76.409 Ha</name>
			<Snippet maxLines="0"></Snippet>
			<styleUrl>#LineStyle0011</styleUrl>
			<MultiGeometry>
				<LineString>
					<tessellate>1</tessellate>
					<coordinates>
						80.23372917582924,21.8471511849873,0 80.23350688974023,21.84672474823037,0 80.23330691344772,21.84628954441709,0 80.23291502547363,21.84543512132107,0 80.23175350983202,21.84462632371595,0 80.23143328496303,21.84404182409376,0 80.23154236307562,21.84372237559421,0 80.2316769279384,21.84330056672666,0 80.23233976642563,21.84118542512761,0 
					</coordinates>
				</LineString>
			</MultiGeometry>
		</Placemark>
		<Placemark>
			<name>76.409 Ha</name>
			<Snippet maxLines="0"></Snippet>
			<styleUrl>#LineStyle0023</styleUrl>
			<MultiGeometry>
				<LineString>
					<tessellate>1</tessellate>
					<coordinates>
						80.222499,21.837576,0 80.22259099999999,21.837423,0 80.222673,21.837286,0 80.2229,21.836908,0 
					</coordinates>
				</LineString>
			</MultiGeometry>
		</Placemark>
		<Placemark>
			<name>76.409 Ha</name>
			<Snippet maxLines="0"></Snippet>
			<styleUrl>#LineStyle008</styleUrl>
			<MultiGeometry>
				<LineString>
					<tessellate>1</tessellate>
					<coordinates>
						80.223045,21.831726,0 80.222549,21.831695,0 80.222184,21.831854,0 80.22197799999999,21.831961,0 80.221779,21.832019,0 80.22152300000001,21.83211,0 80.221154,21.832192,0 80.22102700000001,21.832297,0 80.220859,21.832485,0 80.220749,21.832546,0 80.220649,21.83261,0 80.220555,21.832625,0 80.22044800000001,21.832998,0 80.22034600000001,21.833415,0 80.220325,21.833555,0 
					</coordinates>
				</LineString>
			</MultiGeometry>
		</Placemark>
		<Placemark>
			<name>182.3004 Ha</name>
			<styleUrl>#msn_ylw-pushpin</styleUrl>
			<LineString>
				<tessellate>1</tessellate>
				<coordinates>
					80.2336955490958,21.84712318259092,0 80.23292575305806,21.84544684231695,0 80.2317565880806,21.84462680768171,0 80.23143922347926,21.84404001846556,0 80.23234517846861,21.84116757364025,0 80.23088188475411,21.84083773544225,0 80.23051623340753,21.84085594759277,0 80.22889311791458,21.83978013865982,0 80.22873680766828,21.839663490275,0 80.22850921473582,21.8394737375624,0 80.22831707572102,21.83937412740966,0 80.22806947373469,21.83920934985239,0 80.22788639137055,21.83906078139909,0 80.22774470909504,21.83898633988144,0 80.2275133519688,21.83885068391849,0 80.22738572523781,21.83875431846895,0 80.22723539461615,21.83864367354757,0 80.22711526171048,21.8385608565002,0 80.22703142306835,21.83851209147761,0 80.2269241644789,21.83844838322046,0 80.2268591872699,21.83840296606411,0 80.22642492643833,21.83786538270582,0 80.22631916949975,21.83783479189211,0 80.2257406317793,21.83760053402078,0 80.22518454709626,21.83679096935597,0 80.22503298330946,21.836562029968,0 80.22491186491529,21.83638009695212,0 80.2248252423116,21.83625888339037,0 80.22470838835071,21.83609015241112,0 80.22464166398349,21.83599669423628,0 80.22461468692602,21.83595596448357,0 80.22458229378121,21.83591594193895,0 80.22455063041753,21.83587372619831,0 80.22450374200652,21.8358158301312,0 80.22440431949009,21.83568314919993,0 80.22432589260168,21.83574973450603,0 80.2242776997805,21.83579065067044,0 80.22408771513381,21.83597113701745,0 80.22414749515495,21.8360606021241,0 80.22419648047777,21.83613521522887,0 80.22426628667202,21.83623127838686,0 80.22435260868228,21.83635087985075,0 80.22442188875772,21.83645834865668,0 80.22447422994672,21.8365300087684,0 80.22477126874648,21.83695902383854,0 80.22494837843411,21.83721666786744,0 80.22512944274723,21.83788091767848,0 80.22529811815423,21.8383338990043,0 80.22549667208006,21.83893833518934,0 80.22596923252377,21.84039132506652,0 80.22732864882893,21.84454989681855,0 80.2281607536134,21.84706600438386,0 80.22784808852219,21.84611688564672,0 
				</coordinates>
			</LineString>
		</Placemark>
	</Folder>
</Document>
</kml>
